LEMUR-2-BALTO           
1 63395U 25052BH  26068.69493058  .00007621  00000+0  63456-3 0  9998
2 63395  97.6978 323.5166 0002279 359.2852   0.8367 14.98934076 53850
STARLINK-33967          
1 64027U 25102F   26068.56583586  .00004465  00000+0  38169-3 0  9995
2 64027  70.0014 114.7685 0002934 276.8352  83.2473 14.98340747 45874
